$$SOE
2459580.500000000, A.D. 2022-Jan-01 00:00:00.0000, -3.551907498242469E+08, -3.478436955393476E+08, 6.901770178964046E+07,
2459587.500000000, A.D. 2022-Jan-08 00:00:00.0000, -3.484959993548383E+08, -3.546315857044495E+08, 7.025520562927772E+07,
2459594.500000000, A.D. 2022-Jan-15 00:00:00.0000, -3.416676723702888E+08, -3.612834974384891E+08, 7.146577231517507E+07,
2459601.500000000, A.D. 2022-Jan-22 00:00:00.0000, -3.347085547601228E+08, -3.677970632704085E+08, 7.264897325183678E+07,
2459608.500000000, A.D. 2022-Jan-29 00:00:00.0000, -3.276214680245053E+08, -3.741699652110475E+08, 7.380439012480298E+07,
2459615.500000000, A.D. 2022-Feb-05 00:00:00.0000, -3.204092706235970E+08, -3.803999356778051E+08, 7.493161508929765E+07,
2459622.500000000, A.D. 2022-Feb-12 00:00:00.0000, -3.130748571640329E+08, -3.864847594815162E+08, 7.603025067256548E+07,
2459629.500000000, A.D. 2022-Feb-19 00:00:00.0000, -3.056211567477649E+08, -3.924222745073317E+08, 7.709990970528652E+07,
2459636.500000000, A.D. 2022-Feb-26 00:00:00.0000, -2.980511317944055E+08, -3.982103718127815E+08, 7.814021534322676E+07,
2459643.500000000, A.D. 2022-Mar-05 00:00:00.0000, -2.903677771772819E+08, -4.038469957602498E+08, 7.915080111389619E+07,
2459650.500000000, A.D. 2022-Mar-12 00:00:00.0000, -2.825741194509752E+08, -4.093301442502145E+08, 8.013131096231775E+07,
2459657.500000000, A.D. 2022-Mar-19 00:00:00.0000, -2.746732160992206E+08, -4.146578690278003E+08, 8.108139929158860E+07,
2459664.500000000, A.D. 2022-Mar-26 00:00:00.0000, -2.666681547808275E+08, -4.198282760686615E+08, 8.200073099557950E+07,
2459671.500000000, A.D. 2022-Apr-02 00:00:00.0000, -2.585620525055341E+08, -4.248395260995375E+08, 8.288898147270118E+07,
2459678.500000000, A.D. 2022-Apr-09 00:00:00.0000, -2.503580544668638E+08, -4.296898352480422E+08, 8.374583659574050E+07,
2459685.500000000, A.D. 2022-Apr-16 00:00:00.0000, -2.420593321735851E+08, -4.343774751674620E+08, 8.457099265804458E+07,
2459692.500000000, A.D. 2022-Apr-23 00:00:00.0000, -2.336690821473934E+08, -4.389007715526717E+08, 8.536415650080237E+07,
2459699.500000000, A.D. 2022-Apr-30 00:00:00.0000, -2.251905270558880E+08, -4.432581032933357E+08, 8.612504580943260E+07,
2459706.500000000, A.D. 2022-May-07 00:00:00.0000, -2.166269162178603E+08, -4.474479042397523E+08, 8.685338913723616E+07,
2459713.500000000, A.D. 2022-May-14 00:00:00.0000, -2.079815240923231E+08, -4.514686645447163E+08, 8.754892577778819E+07,
2459720.500000000, A.D. 2022-May-21 00:00:00.0000, -1.992576487831000E+08, -4.553189308227948E+08, 8.821140573470744E+07,
2459727.500000000, A.D. 2022-May-28 00:00:00.0000, -1.904586110377237E+08, -4.589973060850055E+08, 8.884058975427817E+07,
2459734.500000000, A.D. 2022-Jun-04 00:00:00.0000, -1.815877534627592E+08, -4.625024497608559E+08, 8.943624936963692E+07,
2459741.500000000, A.D. 2022-Jun-11 00:00:00.0000, -1.726484398096589E+08, -4.658330778050737E+08, 8.999816694314404E+07,
2459748.500000000, A.D. 2022-Jun-18 00:00:00.0000, -1.636440542911924E+08, -4.689879628758143E+08, 9.052613570440406E+07,
2459755.500000000, A.D. 2022-Jun-25 00:00:00.0000, -1.545780008980336E+08, -4.719659346179532E+08, 9.101995977870528E+07,
2459762.500000000, A.D. 2022-Jul-02 00:00:00.0000, -1.454537025808228E+08, -4.747658801177189E+08, 9.147945418855162E+07,
2459769.500000000, A.D. 2022-Jul-09 00:00:00.0000, -1.362745999070261E+08, -4.773867443521293E+08, 9.190444480734396E+07,
2459776.500000000, A.D. 2022-Jul-16 00:00:00.0000, -1.270441492475446E+08, -4.798275295506313E+08, 9.229476835910732E+07,
2459783.500000000, A.D. 2022-Jul-23 00:00:00.0000, -1.177658226911151E+08, -4.820872933909056E+08, 9.265027267240886E+07,
2459790.500000000, A.D. 2022-Jul-30 00:00:00.0000, -1.084431096015405E+08, -4.841651493824052E+08, 9.297081690668499E+07,
2459797.500000000, A.D. 2022-Aug-06 00:00:00.0000, -9.907951621815203E+07, -4.860602687901156E+08, 9.325627147416997E+07,
2459804.500000000, A.D. 2022-Aug-13 00:00:00.0000, -8.967856412244476E+07, -4.877718813448558E+08, 9.350651795856863E+07,
2459811.500000000, A.D. 2022-Aug-20 00:00:00.0000, -8.024378914005740E+07, -4.892992752435628E+08, 9.372144913362449E+07,
2459818.500000000, A.D. 2022-Aug-27 00:00:00.0000, -7.077874060955887E+07, -4.906417971658113E+08, 9.390096901610053E+07,
2459825.500000000, A.D. 2022-Sep-03 00:00:00.0000, -6.128698076951528E+07, -4.917988524167146E+08, 9.404499292140658E+07,
2459832.500000000, A.D. 2022-Sep-10 00:00:00.0000, -5.177208417292962E+07, -4.927699051719850E+08, 9.415344751550126E+07,
2459839.500000000, A.D. 2022-Sep-17 00:00:00.0000, -4.223763709870532E+07, -4.935544788268493E+08, 9.422627086018264E+07,
2459846.500000000, A.D. 2022-Sep-24 00:00:00.0000, -3.268723689885285E+07, -4.941521564999407E+08, 9.426341244210295E+07,
2459853.500000000, A.D. 2022-Oct-01 00:00:00.0000, -2.312449104082147E+07, -4.945625817148174E+08, 9.426483316171618E+07,
2459860.500000000, A.D. 2022-Oct-08 00:00:00.0000, -1.355301543720092E+07, -4.947854587373089E+08, 9.423050528743500E+07,
2459867.500000000, A.D. 2022-Oct-15 00:00:00.0000, -3.976432994300256E+06, -4.948205513694481E+08, 9.416041255826406E+07,
2459874.500000000, A.D. 2022-Oct-22 00:00:00.0000, 5.601625439335960E+06, -4.946676818831915E+08, 9.405455049690267E+07,
2459881.500000000, A.D. 2022-Oct-29 00:00:00.0000, 1.517752022345327E+07, -4.943267326868943E+08, 9.391292649174491E+07,
2459888.500000000, A.D. 2022-Nov-05 00:00:00.0000, 2.474760427606087E+07, -4.937976479839861E+08, 9.373555967916885E+07,
2459895.500000000, A.D. 2022-Nov-12 00:00:00.0000, 3.430822465845418E+07, -4.930804341573089E+08, 9.352248091000871E+07,
2459902.500000000, A.D. 2022-Nov-19 00:00:00.0000, 4.385572367599787E+07, -4.921751598333046E+08, 9.327373278817518E+07,
2459909.500000000, A.D. 2022-Nov-26 00:00:00.0000, 5.338643975682403E+07, -4.910819560229442E+08, 9.298936972467811E+07,
2459916.500000000, A.D. 2022-Dec-03 00:00:00.0000, 6.289670827438118E+07, -4.898010163499195E+08, 9.266945799043168E+07,
2459923.500000000, A.D. 2022-Dec-10 00:00:00.0000, 7.238286235962221E+07, -4.883325973458622E+08, 9.231407576452102E+07,
2459930.500000000, A.D. 2022-Dec-17 00:00:00.0000, 8.184123372855768E+07, -4.866770188359798E+08, 9.192331317294492E+07,
2459937.500000000, A.D. 2022-Dec-24 00:00:00.0000, 9.126815363623556E+07, -4.848346644800329E+08, 9.149727230210161E+07,
2459944.500000000, A.D. 2022-Dec-31 00:00:00.0000, 1.006599543165314E+08, -4.828059823613029E+08, 9.103606716320808E+07,
2459951.500000000, A.D. 2023-Jan-07 00:00:00.0000, 1.100129710316113E+08, -4.805914846620566E+08, 9.053982367559995E+07,
2459958.500000000, A.D. 2023-Jan-14 00:00:00.0000, 1.193235427642911E+08, -4.781917459293383E+08, 9.000867989038932E+07,
2459965.500000000, A.D. 2023-Jan-21 00:00:00.0000, 1.285880109085125E+08, -4.756074031032107E+08, 8.944278625432204E+07,
2459972.500000000, A.D. 2023-Jan-28 00:00:00.0000, 1.378027196264780E+08, -4.728391575022051E+08, 8.884230556129652E+07,
2459979.500000000, A.D. 2023-Feb-04 00:00:00.0000, 1.469640176645479E+08, -4.698877757381321E+08, 8.820741285824260E+07,
2459986.500000000, A.D. 2023-Feb-11 00:00:00.0000, 1.560682598330185E+08, -4.667540897534997E+08, 8.753829545429854E+07,
2459993.500000000, A.D. 2023-Feb-18 00:00:00.0000, 1.651118080868899E+08, -4.634389968038667E+08, 8.683515297175947E+07,
2460000.500000000, A.D. 2023-Feb-25 00:00:00.0000, 1.740910324709083E+08, -4.599434595458823E+08, 8.609819740138520E+07,
2460007.500000000, A.D. 2023-Mar-04 00:00:00.0000, 1.830023120315930E+08, -4.562685062110564E+08, 8.532765315412776E+07,
2460014.500000000, A.D. 2023-Mar-11 00:00:00.0000, 1.918420357254411E+08, -4.524152308634278E+08, 8.452375710655154E+07,
2460021.500000000, A.D. 2023-Mar-18 00:00:00.0000, 2.006066033711627E+08, -4.483847937891920E+08, 8.368675863146399E+07,
2460028.500000000, A.D. 2023-Mar-25 00:00:00.0000, 2.092924268503269E+08, -4.441784220643013E+08, 8.281691959129745E+07,
2460035.500000000, A.D. 2023-Apr-01 00:00:00.0000, 2.178959319820297E+08, -4.397974099059772E+08, 8.191451428773548E+07,
2460042.500000000, A.D. 2023-Apr-08 00:00:00.0000, 2.264135604568243E+08, -4.352431175828441E+08, 8.097982952446699E+07,
2460049.500000000, A.D. 2023-Apr-15 00:00:00.0000, 2.348417694928333E+08, -4.305169699889913E+08, 8.001316490700658E+07,
2460056.500000000, A.D. 2023-Apr-22 00:00:00.0000, 2.431770310232066E+08, -4.256204579319891E+08, 7.901483296376155E+07,
2460063.500000000, A.D. 2023-Apr-29 00:00:00.0000, 2.514158331507999E+08, -4.205551398803869E+08, 7.798515902129269E+07,
2460070.500000000, A.D. 2023-May-06 00:00:00.0000, 2.595546821107503E+08, -4.153226423888435E+08, 7.692448114076513E+07,
2460077.500000000, A.D. 2023-May-13 00:00:00.0000, 2.675901037646351E+08, -4.099246600936900E+08, 7.583315013202043E+07,
2460084.500000000, A.D. 2023-May-20 00:00:00.0000, 2.755186448606685E+08, -4.043629557690259E+08, 7.471152958334252E+07,
2460091.500000000, A.D. 2023-May-27 00:00:00.0000, 2.833368742536852E+08, -3.986393604717075E+08, 7.355999588635932E+07,
2460098.500000000, A.D. 2023-Jun-03 00:00:00.0000, 2.910413841426507E+08, -3.927557737481261E+08, 7.237893825243963E+07,
2460105.500000000, A.D. 2023-Jun-10 00:00:00.0000, 2.986287913495058E+08, -3.867141639152232E+08, 7.116875871669449E+07,
2460112.500000000, A.D. 2023-Jun-17 00:00:00.0000, 3.060957387285103E+08, -3.805165684742491E+08, 6.992987211586538E+07,
2460119.500000000, A.D. 2023-Jun-24 00:00:00.0000, 3.134388970266570E+08, -3.741650946000794E+08, 6.866270601482107E+07,
2460126.500000000, A.D. 2023-Jul-01 00:00:00.0000, 3.206549674492921E+08, -3.676619188771304E+08, 6.736770062600408E+07,
2460133.500000000, A.D. 2023-Jul-08 00:00:00.0000, 3.277406832575159E+08, -3.610092854597281E+08, 6.604530894258554E+07,
2460140.500000000, A.D. 2023-Jul-15 00:00:00.0000, 3.346928091200005E+08, -3.542095054860951E+08, 6.469599697082603E+07,
2460147.500000000, A.D. 2023-Jul-22 00:00:00.0000, 3.415081417397772E+08, -3.472649587785269E+08, 6.332024365344211E+07,
$$EOE